[{"OBJECT_NAME":"TDRS 11","OBJECT_ID":"2013-004A","EPOCH":"2026-03-04T02:56:21.194592","MEAN_MOTION":1.00276467,"ECCENTRICITY":0.0003947,"INCLINATION":3.3669,"RA_OF_ASC_NODE":29.3465,"ARG_OF_PERICENTER":350.3765,"MEAN_ANOMALY":11.8869,"EPHEMERIS_TYPE":0,"CLASSIFICATION_TYPE":"U","NORAD_CAT_ID":39070,"ELEMENT_SET_NO":999,"REV_AT_EPOCH":4563,"BSTAR":0,"MEAN_MOTION_DOT":7.0e-7,"MEAN_MOTION_DDOT":0},{"OBJECT_NAME":"TDRS 12","OBJECT_ID":"2014-004A","EPOCH":"2026-03-04T01:51:42.391008","MEAN_MOTION":1.00270188,"ECCENTRICITY":0.0003946,"INCLINATION":3.8755,"RA_OF_ASC_NODE":17.2341,"ARG_OF_PERICENTER":267.3669,"MEAN_ANOMALY":224.2614,"EPHEMERIS_TYPE":0,"CLASSIFICATION_TYPE":"U","NORAD_CAT_ID":39504,"ELEMENT_SET_NO":999,"REV_AT_EPOCH":4322,"BSTAR":0,"MEAN_MOTION_DOT":-2.8e-6,"MEAN_MOTION_DDOT":0},{"OBJECT_NAME":"GPM-CORE","OBJECT_ID":"2014-009C","EPOCH":"2026-03-04T03:24:47.542752","MEAN_MOTION":15.44610484,"ECCENTRICITY":0.0012445,"INCLINATION":64.9735,"RA_OF_ASC_NODE":300.0694,"ARG_OF_PERICENTER":264.5865,"MEAN_ANOMALY":95.3856,"EPHEMERIS_TYPE":0,"CLASSIFICATION_TYPE":"U","NORAD_CAT_ID":39574,"ELEMENT_SET_NO":999,"REV_AT_EPOCH":68158,"BSTAR":0.00032831,"MEAN_MOTION_DOT":0.00015183,"MEAN_MOTION_DDOT":0},{"OBJECT_NAME":"MMS 1","OBJECT_ID":"2015-011A","EPOCH":"2026-03-04T06:00:01.999296","MEAN_MOTION":0.28255593,"ECCENTRICITY":0.8412134,"INCLINATION":70.7289,"RA_OF_ASC_NODE":350.2286,"ARG_OF_PERICENTER":165.2963,"MEAN_ANOMALY":34.8637,"EPHEMERIS_TYPE":0,"CLASSIFICATION_TYPE":"U","NORAD_CAT_ID":40482,"ELEMENT_SET_NO":999,"REV_AT_EPOCH":133,"BSTAR":0,"MEAN_MOTION_DOT":-1.952e-5,"MEAN_MOTION_DDOT":0},{"OBJECT_NAME":"MMS 2","OBJECT_ID":"2015-011B","EPOCH":"2026-03-04T06:00:01.999296","MEAN_MOTION":0.28255549,"ECCENTRICITY":0.8412865,"INCLINATION":70.7292,"RA_OF_ASC_NODE":350.2307,"ARG_OF_PERICENTER":165.3024,"MEAN_ANOMALY":34.8471,"EPHEMERIS_TYPE":0,"CLASSIFICATION_TYPE":"U","NORAD_CAT_ID":40483,"ELEMENT_SET_NO":999,"REV_AT_EPOCH":133,"BSTAR":0,"MEAN_MOTION_DOT":-1.952e-5,"MEAN_MOTION_DDOT":0},{"OBJECT_NAME":"MMS 3","OBJECT_ID":"2015-011C","EPOCH":"2026-03-04T06:00:01.999296","MEAN_MOTION":0.28248646,"ECCENTRICITY":0.8412354,"INCLINATION":70.7318,"RA_OF_ASC_NODE":350.2349,"ARG_OF_PERICENTER":165.3013,"MEAN_ANOMALY":34.8419,"EPHEMERIS_TYPE":0,"CLASSIFICATION_TYPE":"U","NORAD_CAT_ID":40484,"ELEMENT_SET_NO":999,"REV_AT_EPOCH":133,"BSTAR":0,"MEAN_MOTION_DOT":-1.952e-5,"MEAN_MOTION_DDOT":0},{"OBJECT_NAME":"MMS 4","OBJECT_ID":"2015-011D","EPOCH":"2026-03-04T06:00:01.999296","MEAN_MOTION":0.28255477,"ECCENTRICITY":0.8411652,"INCLINATION":70.7297,"RA_OF_ASC_NODE":350.2305,"ARG_OF_PERICENTER":165.3039,"MEAN_ANOMALY":34.8413,"EPHEMERIS_TYPE":0,"CLASSIFICATION_TYPE":"U","NORAD_CAT_ID":40485,"ELEMENT_SET_NO":999,"REV_AT_EPOCH":133,"BSTAR":0,"MEAN_MOTION_DOT":-1.952e-5,"MEAN_MOTION_DDOT":0},{"OBJECT_NAME":"TDRS 13","OBJECT_ID":"2017-047A","EPOCH":"2026-03-04T03:42:46.742688","MEAN_MOTION":1.00272185,"ECCENTRICITY":0.0010201,"INCLINATION":3.4296,"RA_OF_ASC_NODE":0.0589,"ARG_OF_PERICENTER":99.2246,"MEAN_ANOMALY":106.8409,"EPHEMERIS_TYPE":0,"CLASSIFICATION_TYPE":"U","NORAD_CAT_ID":42915,"ELEMENT_SET_NO":999,"REV_AT_EPOCH":3129,"BSTAR":0,"MEAN_MOTION_DOT":-1.1e-6,"MEAN_MOTION_DDOT":0},{"OBJECT_NAME":"NOAA 20 (JPSS-1)","OBJECT_ID":"2017-073A","EPOCH":"2026-03-03T23:28:29.664768","MEAN_MOTION":14.19534337,"ECCENTRICITY":9.39e-5,"INCLINATION":98.7686,"RA_OF_ASC_NODE":3.4223,"ARG_OF_PERICENTER":145.1836,"MEAN_ANOMALY":214.9401,"EPHEMERIS_TYPE":0,"CLASSIFICATION_TYPE":"U","NORAD_CAT_ID":43013,"ELEMENT_SET_NO":999,"REV_AT_EPOCH":42954,"BSTAR":6.9758e-5,"MEAN_MOTION_DOT":1.03e-6,"MEAN_MOTION_DDOT":0}]
